GSAT0101 (GALILEO-PFM)  
1 37846U 11060A   24346.87185521 -.00000074  00000+0  00000+0 0  9992
2 37846  57.1198 356.7268 0002651 313.5231  46.4933  1.70475608 81837
GSAT0102 (GALILEO-FM2)  
1 37847U 11060B   24343.27132628 -.00000063  00000+0  00000+0 0  9992
2 37847  57.1207 356.8247 0004628 304.9247  50.7349  1.70475136 81761
GSAT0103 (GALILEO-FM3)  
1 38857U 12055A   24347.49783263  .00000018  00000+0  00000+0 0  9993
2 38857  55.4927 116.7038 0002756 253.2008 106.7232  1.70473340 75609
GSAT0201 (GALILEO 5)    
1 40128U 14050A   24345.33747940 -.00000080  00000+0  00000+0 0  9997
2 40128  49.4759 295.9693 1615988 158.0858 209.7210  1.85519447 68044
GSAT0202 (GALILEO 6)    
1 40129U 14050B   24345.59510641 -.00000081  00000+0  00000+0 0  9993
2 40129  49.4917 295.0383 1615387 158.8836 208.6556  1.85520230 70210
GSAT0203 (GALILEO 7)    
1 40544U 15017A   24347.82381949 -.00000079  00000+0  00000+0 0  9990
2 40544  56.9144 356.6106 0006171 267.2087  92.7562  1.70475804 60465
GSAT0204 (GALILEO 8)    
1 40545U 15017B   24348.07849854 -.00000080  00000+0  00000+0 0  9995
2 40545  56.9207 356.6199 0005890 257.9910 101.9778  1.70475485 60474
GSAT0205 (GALILEO 9)    
1 40889U 15045A   24347.26052610  .00000027  00000+0  00000+0 0  9993
2 40889  55.1396 236.8522 0005867  36.5772 323.5419  1.70472862 57606
GSAT0206 (GALILEO 10)   
1 40890U 15045B   24347.48115701  .00000028  00000+0  00000+0 0  9991
2 40890  55.1386 236.8413 0003865  34.2257 325.8794  1.70472914 57637
GSAT0209 (GALILEO 12)   
1 41174U 15079A   24342.95752126  .00000054  00000+0  00000+0 0  9998
2 41174  55.5095 116.5394 0001926 341.0041  18.9634  1.70474367 55299
GSAT0208 (GALILEO 11)   
1 41175U 15079B   24346.69686887  .00000026  00000+0  00000+0 0  9993
2 41175  55.5096 116.4342 0001410 348.1981  11.7582  1.70474266 55776
GSAT0211 (GALILEO 14)   
1 41549U 16030A   24345.06052710  .00000020  00000+0  00000+0 0  9992
2 41549  55.2885 236.9384 0003815   6.0889 353.9869  1.70472935 53224
GSAT0210 (GALILEO 13)   
1 41550U 16030B   24345.31846670  .00000021  00000+0  00000+0 0  9999
2 41550  55.2877 236.9297 0000789 236.7297 123.3342  1.70473340 53228
GSAT0207 (GALILEO 15)   
1 41859U 16069A   24347.35707558  .00000019  00000+0  00000+0 0  9997
2 41859  55.1776 116.3764 0002109 304.2820  55.6531  1.70474351 49997
GSAT0212 (GALILEO 16)   
1 41860U 16069B   24346.62459990  .00000027  00000+0  00000+0 0  9991
2 41860  55.1754 116.3929 0001494  22.7165 337.2502  1.70474540 50234
GSAT0213 (GALILEO 17)   
1 41861U 16069C   24348.16600363  .00000010  00000+0  00000+0 0  9997
2 41861  55.1780 116.3572 0002430 267.0169  92.9054  1.70474893 50257
GSAT0214 (GALILEO 18)   
1 41862U 16069D   24345.37857611  .00000040  00000+0  00000+0 0  9991
2 41862  55.1752 116.4278 0001445 261.2298  98.7222  1.70474642 50203
GSAT0215 (GALILEO 19)   
1 43055U 17079A   24343.52222391  .00000021  00000+0  00000+0 0  9994
2 43055  55.2662 236.8003 0001363 329.0988  30.9663  1.70473692 43518
GSAT0216 (GALILEO 20)   
1 43056U 17079B   24344.98695526  .00000020  00000+0  00000+0 0  9999
2 43056  55.2659 236.7599 0002710 312.3839  47.6645  1.70473833 43557
GSAT0217 (GALILEO 21)   
1 43057U 17079C   24345.79408008  .00000022  00000+0  00000+0 0  9999
2 43057  55.2639 236.7360 0002875 332.5379  27.5197  1.70473635 43556
GSAT0218 (GALILEO 22)   
1 43058U 17079D   24347.18731328  .00000027  00000+0  00000+0 0  9994
2 43058  55.2634 236.6952 0002845 304.5491  55.5030  1.70473778 43600
GSAT0221 (GALILEO 25)   
1 43564U 18060A   24347.08832626 -.00000075  00000+0  00000+0 0  9993
2 43564  57.2949 356.6760 0006385 277.9697  81.9957  1.70475686 39759
GSAT0222 (GALILEO 26)   
1 43565U 18060B   24346.13392938 -.00000071  00000+0  00000+0 0  9992
2 43565  57.2991 356.7038 0005789 258.2064 101.7684  1.70475384 39789
GSAT0219 (GALILEO 23)   
1 43566U 18060C   24346.94213738 -.00000074  00000+0  00000+0 0  9995
2 43566  57.2975 356.6839 0005534 283.3463  76.6303  1.70475649 39771
GSAT0220 (GALILEO 24)   
1 43567U 18060D   24344.81654737 -.00000067  00000+0  00000+0 0  9990
2 43567  57.2976 356.7418 0005846 280.5083  79.4668  1.70475372 39723
GSAT0223 (GALILEO 27)   
1 49809U 21116A   24347.60654338 -.00000077  00000+0  00000+0 0  9999
2 49809  57.2875 356.5593 0004250 247.2634 115.5373  1.70475531 18783
GSAT0224 (GALILEO 28)   
1 49810U 21116B   24344.65902760 -.00000066  00000+0  00000+0 0  9996
2 49810  57.2884 356.6378 0003701 250.4890 215.8895  1.70475597 18759
GSAT0225 (GALILEO 29)   
1 59598U 24079A   24347.42806042  .00000018  00000+0  00000+0 0  9991
2 59598  54.7944 116.5200 0002792 176.2654 180.6334  1.70474743  3901
GSAT0227 (GALILEO 30)   
1 59600U 24079C   24347.02979774  .00000022  00000+0  00000+0 0  9999
2 59600  54.7894 116.5314 0003299 122.9211 237.0681  1.70474683  3955
GSAT0232 (GALILEO 32)   
1 61182U 24167A   24348.10222031  .00000031  00000+0  00000+0 0  9992
2 61182  55.3712 236.4374 0001768 205.8056 288.0167  1.70474198  1486
GSAT0226 (GALILEO 31)   
1 61183U 24167B   24349.46073372  .00000033  00000+0  00000+0 0  9997
2 61183  55.3684 236.4072 0001033 110.2055 249.8970  1.70476128  1496
